{
  "norad_id": 59543,
  "name": "STARLINK-31574",
  "history": [
    {
      "epoch": "2026-03-28T11:03:44.622432Z",
      "apogee_km": 483.4298965566177,
      "perigee_km": 482.5970901097371,
      "latitude_deg": 2.315089205730368e-05,
      "longitude_deg": -114.17585429080964,
      "height_km": 483.0906084822127,
      "semi_major_axis_km": 6861.150493333177,
      "eccentricity": 6.069e-05,
      "inclination_deg": 43.0008,
      "raan_deg": 237.6411,
      "arg_perigee_deg": 223.6595,
      "mean_anomaly_deg": 136.4209,
      "mean_motion_rev_day": 15.2759189
    },
    {
      "epoch": "2026-03-29T02:45:18.134208Z",
      "apogee_km": 484.053524850563,
      "perigee_km": 482.0088967237489,
      "latitude_deg": 4.828345151943211e-05,
      "longitude_deg": 6.099166043643025,
      "height_km": 482.529646220156,
      "semi_major_axis_km": 6861.168210787156,
      "eccentricity": 0.000149,
      "inclination_deg": 43.0021,
      "raan_deg": 233.9502,
      "arg_perigee_deg": 285.812,
      "mean_anomaly_deg": 74.2568,
      "mean_motion_rev_day": 15.27585973
    },
    {
      "epoch": "2026-03-30T02:17:41.148960Z",
      "apogee_km": 483.9964968267677,
      "perigee_km": 482.20708574999935,
      "latitude_deg": 6.504615102918349e-06,
      "longitude_deg": 6.496285043881498,
      "height_km": 482.7917809039511,
      "semi_major_axis_km": 6861.238791288383,
      "eccentricity": 0.0001304,
      "inclination_deg": 43.0033,
      "raan_deg": 228.41,
      "arg_perigee_deg": 275.5807,
      "mean_anomaly_deg": 84.4896,
      "mean_motion_rev_day": 15.27562402
    }
  ]
}